[{"OBJECT_NAME":"STARLINK-11193 [DTC]","OBJECT_ID":"2024-124N","EPOCH":"2025-08-28T15:20:35.894112","MEAN_MOTION":15.69713337,"ECCENTRICITY":2.968e-5,"INCLINATION":53.1591,"RA_OF_ASC_NODE":32.8991,"ARG_OF_PERICENTER":81.0862,"MEAN_ANOMALY":279.0189,"EPHEMERIS_TYPE":0,"CLASSIFICATION_TYPE":"U","NORAD_CAT_ID":60195,"ELEMENT_SET_NO":999,"REV_AT_EPOCH":6621,"BSTAR":2.813378e-6,"MEAN_MOTION_DOT":-2.46e-6,"MEAN_MOTION_DDOT":0},{"OBJECT_NAME":"STARLINK-31869","OBJECT_ID":"2024-124P","EPOCH":"2025-08-28T22:11:09.325536","MEAN_MOTION":15.30188216,"ECCENTRICITY":0.00012493,"INCLINATION":53.1589,"RA_OF_ASC_NODE":137.7885,"ARG_OF_PERICENTER":73.5726,"MEAN_ANOMALY":286.5412,"EPHEMERIS_TYPE":0,"CLASSIFICATION_TYPE":"U","NORAD_CAT_ID":60196,"ELEMENT_SET_NO":999,"REV_AT_EPOCH":6478,"BSTAR":-1.9622102e-5,"MEAN_MOTION_DOT":-9.4e-6,"MEAN_MOTION_DDOT":0},{"OBJECT_NAME":"STARLINK-32023","OBJECT_ID":"2024-124Q","EPOCH":"2025-08-28T21:27:14.957568","MEAN_MOTION":15.30188253,"ECCENTRICITY":0.00013149,"INCLINATION":53.1604,"RA_OF_ASC_NODE":138.3096,"ARG_OF_PERICENTER":77.3288,"MEAN_ANOMALY":282.786,"EPHEMERIS_TYPE":0,"CLASSIFICATION_TYPE":"U","NORAD_CAT_ID":60197,"ELEMENT_SET_NO":999,"REV_AT_EPOCH":6477,"BSTAR":-1.1472598e-5,"MEAN_MOTION_DOT":-6.99e-6,"MEAN_MOTION_DDOT":0},{"OBJECT_NAME":"STARLINK-32046","OBJECT_ID":"2024-124R","EPOCH":"2025-08-28T22:27:51.927552","MEAN_MOTION":15.30194858,"ECCENTRICITY":0.00011151,"INCLINATION":53.1593,"RA_OF_ASC_NODE":137.8583,"ARG_OF_PERICENTER":75.2285,"MEAN_ANOMALY":284.8839,"EPHEMERIS_TYPE":0,"CLASSIFICATION_TYPE":"U","NORAD_CAT_ID":60198,"ELEMENT_SET_NO":999,"REV_AT_EPOCH":6601,"BSTAR":2.586471e-6,"MEAN_MOTION_DOT":-2.82e-6,"MEAN_MOTION_DDOT":0},{"OBJECT_NAME":"STARLINK-32049","OBJECT_ID":"2024-124S","EPOCH":"2025-08-28T21:13:33.850848","MEAN_MOTION":15.30194165,"ECCENTRICITY":9.532e-5,"INCLINATION":53.1605,"RA_OF_ASC_NODE":138.249,"ARG_OF_PERICENTER":102.3764,"MEAN_ANOMALY":257.7344,"EPHEMERIS_TYPE":0,"CLASSIFICATION_TYPE":"U","NORAD_CAT_ID":60199,"ELEMENT_SET_NO":999,"REV_AT_EPOCH":6600,"BSTAR":1.1951438e-5,"MEAN_MOTION_DOT":-5.0e-8,"MEAN_MOTION_DDOT":0},{"OBJECT_NAME":"STARLINK-32002","OBJECT_ID":"2024-124T","EPOCH":"2025-08-28T22:29:23.015616","MEAN_MOTION":15.30196202,"ECCENTRICITY":0.00010554,"INCLINATION":53.1591,"RA_OF_ASC_NODE":137.864,"ARG_OF_PERICENTER":69.7109,"MEAN_ANOMALY":290.4005,"EPHEMERIS_TYPE":0,"CLASSIFICATION_TYPE":"U","NORAD_CAT_ID":60200,"ELEMENT_SET_NO":999,"REV_AT_EPOCH":6478,"BSTAR":2.556254e-6,"MEAN_MOTION_DOT":-2.83e-6,"MEAN_MOTION_DDOT":0},{"OBJECT_NAME":"STARLINK-32020","OBJECT_ID":"2024-124U","EPOCH":"2025-08-28T21:49:52.175424","MEAN_MOTION":15.30194437,"ECCENTRICITY":0.00014943,"INCLINATION":53.1589,"RA_OF_ASC_NODE":137.6899,"ARG_OF_PERICENTER":103.6516,"MEAN_ANOMALY":256.4652,"EPHEMERIS_TYPE":0,"CLASSIFICATION_TYPE":"U","NORAD_CAT_ID":60201,"ELEMENT_SET_NO":999,"REV_AT_EPOCH":6478,"BSTAR":2.165645e-6,"MEAN_MOTION_DOT":-2.95e-6,"MEAN_MOTION_DDOT":0},{"OBJECT_NAME":"STARLINK-32041","OBJECT_ID":"2024-124V","EPOCH":"2025-08-28T22:24:50.300928","MEAN_MOTION":15.30173181,"ECCENTRICITY":9.028e-5,"INCLINATION":53.1587,"RA_OF_ASC_NODE":137.8418,"ARG_OF_PERICENTER":56.4039,"MEAN_ANOMALY":303.7048,"EPHEMERIS_TYPE":0,"CLASSIFICATION_TYPE":"U","NORAD_CAT_ID":60202,"ELEMENT_SET_NO":999,"REV_AT_EPOCH":6598,"BSTAR":-0.00010986786,"MEAN_MOTION_DOT":-3.608e-5,"MEAN_MOTION_DDOT":0},{"OBJECT_NAME":"STARLINK-32138","OBJECT_ID":"2024-131A","EPOCH":"2025-08-27T16:25:18.990048","MEAN_MOTION":15.30194898,"ECCENTRICITY":0.00021549,"INCLINATION":53.1582,"RA_OF_ASC_NODE":233.7005,"ARG_OF_PERICENTER":90.1887,"MEAN_ANOMALY":269.9361,"EPHEMERIS_TYPE":0,"CLASSIFICATION_TYPE":"U","NORAD_CAT_ID":60255,"ELEMENT_SET_NO":999,"REV_AT_EPOCH":6231,"BSTAR":2.521396e-5,"MEAN_MOTION_DOT":3.87e-6,"MEAN_MOTION_DDOT":0},{"OBJECT_NAME":"STARLINK-32212","OBJECT_ID":"2024-131B","EPOCH":"2025-08-28T08:24:05.236704","MEAN_MOTION":15.30194527,"ECCENTRICITY":0.00014134,"INCLINATION":53.1593,"RA_OF_ASC_NODE":230.7579,"ARG_OF_PERICENTER":98.0581,"MEAN_ANOMALY":262.058,"EPHEMERIS_TYPE":0,"CLASSIFICATION_TYPE":"U","NORAD_CAT_ID":60256,"ELEMENT_SET_NO":999,"REV_AT_EPOCH":6211,"BSTAR":1.796665e-5,"MEAN_MOTION_DOT":1.73e-6,"MEAN_MOTION_DDOT":0},{"OBJECT_NAME":"STARLINK-32166","OBJECT_ID":"2024-131C","EPOCH":"2025-08-28T08:33:10.497600","MEAN_MOTION":15.30202117,"ECCENTRICITY":0.00020119,"INCLINATION":53.1586,"RA_OF_ASC_NODE":230.7865,"ARG_OF_PERICENTER":85.3148,"MEAN_ANOMALY":274.8082,"EPHEMERIS_TYPE":0,"CLASSIFICATION_TYPE":"U","NORAD_CAT_ID":60257,"ELEMENT_SET_NO":999,"REV_AT_EPOCH":6211,"BSTAR":4.3300135e-5,"MEAN_MOTION_DOT":9.23e-6,"MEAN_MOTION_DDOT":0},{"OBJECT_NAME":"STARLINK-32200","OBJECT_ID":"2024-131D","EPOCH":"2025-08-28T08:21:02.899872","MEAN_MOTION":15.30194404,"ECCENTRICITY":0.00015015,"INCLINATION":53.1588,"RA_OF_ASC_NODE":230.7342,"ARG_OF_PERICENTER":77.2007,"MEAN_ANOMALY":282.9162,"EPHEMERIS_TYPE":0,"CLASSIFICATION_TYPE":"U","NORAD_CAT_ID":60258,"ELEMENT_SET_NO":999,"REV_AT_EPOCH":6211,"BSTAR":1.3257793e-5,"MEAN_MOTION_DOT":3.3e-7,"MEAN_MOTION_DDOT":0},{"OBJECT_NAME":"STARLINK-32207","OBJECT_ID":"2024-131E","EPOCH":"2025-08-27T16:37:28.311456","MEAN_MOTION":15.30192807,"ECCENTRICITY":0.00011652,"INCLINATION":53.1589,"RA_OF_ASC_NODE":233.7653,"ARG_OF_PERICENTER":93.9083,"MEAN_ANOMALY":266.2051,"EPHEMERIS_TYPE":0,"CLASSIFICATION_TYPE":"U","NORAD_CAT_ID":60259,"ELEMENT_SET_NO":999,"REV_AT_EPOCH":6201,"BSTAR":-1.1862665e-5,"MEAN_MOTION_DOT":-7.1e-6,"MEAN_MOTION_DDOT":0},{"OBJECT_NAME":"STARLINK-32125","OBJECT_ID":"2024-131F","EPOCH":"2025-08-28T16:29:22.947360","MEAN_MOTION":15.30191473,"ECCENTRICITY":0.00017545,"INCLINATION":53.1606,"RA_OF_ASC_NODE":228.5801,"ARG_OF_PERICENTER":95.1828,"MEAN_ANOMALY":264.9373,"EPHEMERIS_TYPE":0,"CLASSIFICATION_TYPE":"U","NORAD_CAT_ID":60260,"ELEMENT_SET_NO":999,"REV_AT_EPOCH":6217,"BSTAR":-1.4823319e-5,"MEAN_MOTION_DOT":-7.98e-6,"MEAN_MOTION_DDOT":0},{"OBJECT_NAME":"STARLINK-32160","OBJECT_ID":"2024-131G","EPOCH":"2025-08-28T08:25:35.913504","MEAN_MOTION":15.30179396,"ECCENTRICITY":0.0001016,"INCLINATION":53.1584,"RA_OF_ASC_NODE":230.7478,"ARG_OF_PERICENTER":100.2776,"MEAN_ANOMALY":259.8339,"EPHEMERIS_TYPE":0,"CLASSIFICATION_TYPE":"U","NORAD_CAT_ID":60261,"ELEMENT_SET_NO":999,"REV_AT_EPOCH":6216,"BSTAR":1.4067664e-5,"MEAN_MOTION_DOT":5.7e-7,"MEAN_MOTION_DDOT":0},{"OBJECT_NAME":"STARLINK-32163","OBJECT_ID":"2024-131H","EPOCH":"2025-08-27T09:41:44.724768","MEAN_MOTION":15.3019094,"ECCENTRICITY":0.00011729,"INCLINATION":53.1592,"RA_OF_ASC_NODE":234.7924,"ARG_OF_PERICENTER":74.1617,"MEAN_ANOMALY":285.9513,"EPHEMERIS_TYPE":0,"CLASSIFICATION_TYPE":"U","NORAD_CAT_ID":60262,"ELEMENT_SET_NO":999,"REV_AT_EPOCH":6197,"BSTAR":2.0210976e-5,"MEAN_MOTION_DOT":2.39e-6,"MEAN_MOTION_DDOT":0}]
