STARLINK-11193 [DTC]    
1 60195U 24124N   25240.63930433 -.00000246  00000+0  28134-5 0  9993
2 60195  53.1591  32.8991 0000296  81.0862 279.0189 15.69713337 66217
STARLINK-31869          
1 60196U 24124P   25240.92441349 -.00000940  00000+0 -19622-4 0  9992
2 60196  53.1589 137.7885 0001249  73.5726 286.5412 15.30188216 64788
STARLINK-32023          
1 60197U 24124Q   25240.89392312 -.00000699  00000+0 -11473-4 0  9991
2 60197  53.1604 138.3096 0001314  77.3288 282.7860 15.30188253 64771
STARLINK-32046          
1 60198U 24124R   25240.93601768 -.00000282  00000+0  25865-5 0  9993
2 60198  53.1593 137.8583 0001115  75.2285 284.8839 15.30194858 66013
STARLINK-32049          
1 60199U 24124S   25240.88441957 -.00000005  00000+0  11951-4 0  9993
2 60199  53.1605 138.2490 0000953 102.3764 257.7344 15.30194165 66003
STARLINK-32002          
1 60200U 24124T   25240.93707194 -.00000283  00000+0  25563-5 0  9993
2 60200  53.1591 137.8640 0001055  69.7109 290.4005 15.30196202 64780
STARLINK-32020          
1 60201U 24124U   25240.90963166 -.00000295  00000+0  21656-5 0  9996
2 60201  53.1589 137.6899 0001494 103.6516 256.4652 15.30194437 64787
STARLINK-32041          
1 60202U 24124V   25240.93391552 -.00003608  00000+0 -10987-3 0  9999
2 60202  53.1587 137.8418 0000902  56.4039 303.7048 15.30173181 65984
STARLINK-32138          
1 60255U 24131A   25239.68424757  .00000387  00000+0  25214-4 0  9998
2 60255  53.1582 233.7005 0002154  90.1887 269.9361 15.30194898 62315
STARLINK-32212          
1 60256U 24131B   25240.35006061  .00000173  00000+0  17967-4 0  9998
2 60256  53.1593 230.7579 0001413  98.0581 262.0580 15.30194527 62110
STARLINK-32166          
1 60257U 24131C   25240.35637150  .00000923  00000+0  43300-4 0  9991
2 60257  53.1586 230.7865 0002011  85.3148 274.8082 15.30202117 62117
STARLINK-32200          
1 60258U 24131D   25240.34795023  .00000033  00000+0  13258-4 0  9996
2 60258  53.1588 230.7342 0001501  77.2007 282.9162 15.30194404 62115
STARLINK-32207          
1 60259U 24131E   25239.69268879 -.00000710  00000+0 -11863-4 0  9991
2 60259  53.1589 233.7653 0001165  93.9083 266.2051 15.30192807 62016
STARLINK-32125          
1 60260U 24131F   25240.68707115 -.00000798  00000+0 -14823-4 0  9990
2 60260  53.1606 228.5801 0001754  95.1828 264.9373 15.30191473 62177
STARLINK-32160          
1 60261U 24131G   25240.35111011  .00000057  00000+0  14068-4 0  9996
2 60261  53.1584 230.7478 0001016 100.2776 259.8339 15.30179396 62163
STARLINK-32163          
1 60262U 24131H   25239.40398987  .00000239  00000+0  20211-4 0  9999
2 60262  53.1592 234.7924 0001172  74.1617 285.9513 15.30190940 61979
